{"type": "FeatureCollection", "features": [ {"type": "Feature", "properties": {"norad_id": 33870, "name": "IRIDIUM 33 DEB", "group": "iridium-33-debris", "lat": 13.900870535803337, "lon": 53.07408787984979, "alt_km": 747.9520508909918, "timestamp": "2025-12-26T22:28:06.169834+00:00", "meta": {"OBJECT_NAME": "IRIDIUM 33 DEB", "OBJECT_ID": "1997-051AP", "EPOCH": "2025-12-26T14:47:54.488832", "MEAN_MOTION": 14.45919153, "ECCENTRICITY": 0.0022756, "INCLINATION": 86.3733, "RA_OF_ASC_NODE": 52.3117, "ARG_OF_PERICENTER": 134.2343, "MEAN_ANOMALY": 17.5876, "EPHEMERIS_TYPE": 0, "CLASSIFICATION_TYPE": "U", "NORAD_CAT_ID": 33870, "ELEMENT_SET_NO": 999, "REV_AT_EPOCH": 88337, "BSTAR": 0.00069882, "MEAN_MOTION_DOT": 2.511e-05, "MEAN_MOTION_DDOT": 0}, "tle": {"line1": "1 33870U 97051AP  25360.61660288  .00002511  00000+0  69882-3 0  9990", "line2": "2 33870  86.3733  52.3117 0022756 134.2343  17.5876 14.45919153883379"}}, "geometry": {"type": "Point", "coordinates": [53.07408787984979, 13.900870535803337]}}, {"type": "Feature", "properties": {"norad_id": 33881, "name": "IRIDIUM 33 DEB", "group": "iridium-33-debris", "lat": 73.33702956608234, "lon": 112.76396494923542, "alt_km": 671.4711838570156, "timestamp": "2025-12-26T22:28:06.169845+00:00", "meta": {"OBJECT_NAME": "IRIDIUM 33 DEB", "OBJECT_ID": "1997-051BA", "EPOCH": "2025-12-26T17:52:36.248736", "MEAN_MOTION": 14.56831509, "ECCENTRICITY": 0.0061023, "INCLINATION": 86.3854, "RA_OF_ASC_NODE": 100.6549, "ARG_OF_PERICENTER": 129.3399, "MEAN_ANOMALY": 22.2432, "EPHEMERIS_TYPE": 0, "CLASSIFICATION_TYPE": "U", "NORAD_CAT_ID": 33881, "ELEMENT_SET_NO": 999, "REV_AT_EPOCH": 87704, "BSTAR": 0.0022087, "MEAN_MOTION_DOT": 0.00010173, "MEAN_MOTION_DDOT": 0}, "tle": {"line1": "1 33881U 97051BA  25360.74486399  .00010173  00000+0  22087-2 0  9993", "line2": "2 33881  86.3854 100.6549 0061023 129.3399  22.2432 14.56831509877045"}}, "geometry": {"type": "Point", "coordinates": [112.76396494923542, 73.33702956608234]}}, {"type": "Feature", "properties": {"norad_id": 33884, "name": "IRIDIUM 33 DEB", "group": "iridium-33-debris", "lat": 5.827190665096184, "lon": 3.7805001735506134, "alt_km": 639.6682759772084, "timestamp": "2025-12-26T22:28:06.169857+00:00", "meta": {"OBJECT_NAME": "IRIDIUM 33 DEB", "OBJECT_ID": "1997-051BD", "EPOCH": "2025-12-26T11:45:10.238112", "MEAN_MOTION": 14.77706795, "ECCENTRICITY": 0.0008805, "INCLINATION": 86.3712, "RA_OF_ASC_NODE": 3.6109, "ARG_OF_PERICENTER": 269.9643, "MEAN_ANOMALY": 242.2854, "EPHEMERIS_TYPE": 0, "CLASSIFICATION_TYPE": "U", "NORAD_CAT_ID": 33884, "ELEMENT_SET_NO": 999, "REV_AT_EPOCH": 89050, "BSTAR": 0.0015056, "MEAN_MOTION_DOT": 0.00010823, "MEAN_MOTION_DDOT": 0}, "tle": {"line1": "1 33884U 97051BD  25360.48970183  .00010823  00000+0  15056-2 0  9996", "line2": "2 33884  86.3712   3.6109 0008805 269.9643 242.2854 14.77706795890506"}}, "geometry": {"type": "Point", "coordinates": [3.7805001735506134, 5.827190665096184]}}, {"type": "Feature", "properties": {"norad_id": 33886, "name": "IRIDIUM 33 DEB", "group": "iridium-33-debris", "lat": -26.502506660865034, "lon": 59.44480501406959, "alt_km": 784.9753426179986, "timestamp": "2025-12-26T22:28:06.169868+00:00", "meta": {"OBJECT_NAME": "IRIDIUM 33 DEB", "OBJECT_ID": "1997-051BF", "EPOCH": "2025-12-26T14:45:54.639072", "MEAN_MOTION": 14.36067742, "ECCENTRICITY": 0.0013658, "INCLINATION": 86.3819, "RA_OF_ASC_NODE": 61.3879, "ARG_OF_PERICENTER": 192.7494, "MEAN_ANOMALY": 282.4081, "EPHEMERIS_TYPE": 0, "CLASSIFICATION_TYPE": "U", "NORAD_CAT_ID": 33886, "ELEMENT_SET_NO": 999, "REV_AT_EPOCH": 88251, "BSTAR": 0.00019455, "MEAN_MOTION_DOT": 5.86e-06, "MEAN_MOTION_DDOT": 0}, "tle": {"line1": "1 33886U 97051BF  25360.61521573  .00000586  00000+0  19455-3 0  9991", "line2": "2 33886  86.3819  61.3879 0013658 192.7494 282.4081 14.36067742882517"}}, "geometry": {"type": "Point", "coordinates": [59.44480501406959, -26.502506660865034]}}, {"type": "Feature", "properties": {"norad_id": 33887, "name": "IRIDIUM 33 DEB", "group": "iridium-33-debris", "lat": -30.7011181117299, "lon": -4.925347769716756, "alt_km": 777.5707491441899, "timestamp": "2025-12-26T22:28:06.169878+00:00", "meta": {"OBJECT_NAME": "IRIDIUM 33 DEB", "OBJECT_ID": "1997-051BG", "EPOCH": "2025-12-26T01:09:55.785312", "MEAN_MOTION": 14.37232581, "ECCENTRICITY": 0.00058983, "INCLINATION": 86.3044, "RA_OF_ASC_NODE": 357.6564, "ARG_OF_PERICENTER": 176.4648, "MEAN_ANOMALY": 243.1701, "EPHEMERIS_TYPE": 0, "CLASSIFICATION_TYPE": "U", "NORAD_CAT_ID": 33887, "ELEMENT_SET_NO": 999, "REV_AT_EPOCH": 88356, "BSTAR": 0.00014545145, "MEAN_MOTION_DOT": 4.53e-06, "MEAN_MOTION_DDOT": 0}, "tle": {"line1": "1 33887U 97051BG  25360.04856233  .00000453  00000+0  14545-3 0  9991", "line2": "2 33887  86.3044 357.6564 0005898 176.4648 243.1701 14.37232581883562"}}, "geometry": {"type": "Point", "coordinates": [-4.925347769716756, -30.7011181117299]}}, {"type": "Feature", "properties": {"norad_id": 33953, "name": "IRIDIUM 33 DEB", "group": "iridium-33-debris", "lat": 31.3902243334304, "lon": 49.8280731375696, "alt_km": 695.2550689123009, "timestamp": "2025-12-26T22:28:06.169889+00:00", "meta": {"OBJECT_NAME": "IRIDIUM 33 DEB", "OBJECT_ID": "1997-051BN", "EPOCH": "2025-12-26T14:46:02.739936", "MEAN_MOTION": 14.55451821, "ECCENTRICITY": 0.0017451, "INCLINATION": 86.3834, "RA_OF_ASC_NODE": 47.7557, "ARG_OF_PERICENTER": 60.1468, "MEAN_ANOMALY": 91.3298, "EPHEMERIS_TYPE": 0, "CLASSIFICATION_TYPE": "U", "NORAD_CAT_ID": 33953, "ELEMENT_SET_NO": 999, "REV_AT_EPOCH": 88505, "BSTAR": 0.0011159, "MEAN_MOTION_DOT": 4.881e-05, "MEAN_MOTION_DDOT": 0}, "tle": {"line1": "1 33953U 97051BN  25360.61530949  .00004881  00000+0  11159-2 0  9997", "line2": "2 33953  86.3834  47.7557 0017451  60.1468  91.3298 14.55451821885059"}}, "geometry": {"type": "Point", "coordinates": [49.8280731375696, 31.3902243334304]}}, {"type": "Feature", "properties": {"norad_id": 33960, "name": "IRIDIUM 33 DEB", "group": "iridium-33-debris", "lat": -65.2415292149322, "lon": -85.34967820147891, "alt_km": 619.117375574795, "timestamp": "2025-12-26T22:28:06.169901+00:00", "meta": {"OBJECT_NAME": "IRIDIUM 33 DEB", "OBJECT_ID": "1997-051BV", "EPOCH": "2025-12-26T18:02:38.047200", "MEAN_MOTION": 14.85907169, "ECCENTRICITY": 0.0006948, "INCLINATION": 86.2535, "RA_OF_ASC_NODE": 282.9057, "ARG_OF_PERICENTER": 38.1734, "MEAN_ANOMALY": 350.9448, "EPHEMERIS_TYPE": 0, "CLASSIFICATION_TYPE": "U", "NORAD_CAT_ID": 33960, "ELEMENT_SET_NO": 999, "REV_AT_EPOCH": 89075, "BSTAR": 0.0032088, "MEAN_MOTION_DOT": 0.00028087, "MEAN_MOTION_DDOT": 0}, "tle": {"line1": "1 33960U 97051BV  25360.75182925  .00028087  00000+0  32088-2 0  9995", "line2": "2 33960  86.2535 282.9057 0006948  38.1734 350.9448 14.85907169890750"}}, "geometry": {"type": "Point", "coordinates": [-85.34967820147891, -65.2415292149322]}}, {"type": "Feature", "properties": {"norad_id": 33966, "name": "IRIDIUM 33 DEB", "group": "iridium-33-debris", "lat": -43.38710283556849, "lon": -136.6462277553678, "alt_km": 732.3245185210653, "timestamp": "2025-12-26T22:28:06.169911+00:00", "meta": {"OBJECT_NAME": "IRIDIUM 33 DEB", "OBJECT_ID": "1997-051CB", "EPOCH": "2025-12-26T15:23:33.736416", "MEAN_MOTION": 14.49646818, "ECCENTRICITY": 0.0008881, "INCLINATION": 86.391, "RA_OF_ASC_NODE": 40.0602, "ARG_OF_PERICENTER": 145.5538, "MEAN_ANOMALY": 340.1487, "EPHEMERIS_TYPE": 0, "CLASSIFICATION_TYPE": "U", "NORAD_CAT_ID": 33966, "ELEMENT_SET_NO": 999, "REV_AT_EPOCH": 88643, "BSTAR": 0.00051075, "MEAN_MOTION_DOT": 1.983e-05, "MEAN_MOTION_DDOT": 0}, "tle": {"line1": "1 33966U 97051CB  25360.64136269  .00001983  00000+0  51075-3 0  9993", "line2": "2 33966  86.3910  40.0602 0008881 145.5538 340.1487 14.49646818886431"}}, "geometry": {"type": "Point", "coordinates": [-136.6462277553678, -43.38710283556849]}}, {"type": "Feature", "properties": {"norad_id": 34071, "name": "IRIDIUM 33 DEB", "group": "iridium-33-debris", "lat": -76.32147043359205, "lon": -3.5687203818079163, "alt_km": 740.4060474188091, "timestamp": "2025-12-26T22:28:06.169922+00:00", "meta": {"OBJECT_NAME": "IRIDIUM 33 DEB", "OBJECT_ID": "1997-051CE", "EPOCH": "2025-12-26T17:51:07.795008", "MEAN_MOTION": 14.49526568, "ECCENTRICITY": 0.0009804, "INCLINATION": 86.3453, "RA_OF_ASC_NODE": 11.7403, "ARG_OF_PERICENTER": 70.1047, "MEAN_ANOMALY": 290.1213, "EPHEMERIS_TYPE": 0, "CLASSIFICATION_TYPE": "U", "NORAD_CAT_ID": 34071, "ELEMENT_SET_NO": 999, "REV_AT_EPOCH": 88537, "BSTAR": 0.00064162, "MEAN_MOTION_DOT": 2.48e-05, "MEAN_MOTION_DDOT": 0}, "tle": {"line1": "1 34071U 97051CE  25360.74384022  .00002480  00000+0  64162-3 0  9998", "line2": "2 34071  86.3453  11.7403 0009804  70.1047 290.1213 14.49526568885371"}}, "geometry": {"type": "Point", "coordinates": [-3.5687203818079163, -76.32147043359205]}}, {"type": "Feature", "properties": {"norad_id": 34077, "name": "IRIDIUM 33 DEB", "group": "iridium-33-debris", "lat": -12.763653706104382, "lon": -133.9272621332842, "alt_km": 687.2834910344873, "timestamp": "2025-12-26T22:28:06.169932+00:00", "meta": {"OBJECT_NAME": "IRIDIUM 33 DEB", "OBJECT_ID": "1997-051CL", "EPOCH": "2025-12-26T15:37:29.746272", "MEAN_MOTION": 14.65017306, "ECCENTRICITY": 0.0008586, "INCLINATION": 86.3849, "RA_OF_ASC_NODE": 45.3778, "ARG_OF_PERICENTER": 353.3839, "MEAN_ANOMALY": 136.4278, "EPHEMERIS_TYPE": 0, "CLASSIFICATION_TYPE": "U", "NORAD_CAT_ID": 34077, "ELEMENT_SET_NO": 999, "REV_AT_EPOCH": 88536, "BSTAR": 0.0015938, "MEAN_MOTION_DOT": 8.57e-05, "MEAN_MOTION_DDOT": 0}, "tle": {"line1": "1 34077U 97051CL  25360.65103873  .00008570  00000+0  15938-2 0  9999", "line2": "2 34077  86.3849  45.3778 0008586 353.3839 136.4278 14.65017306885360"}}, "geometry": {"type": "Point", "coordinates": [-133.9272621332842, -12.763653706104382]}}]}